NORAD_CAT_ID,OBJECT_NAME,OBJECT_TYPE,EPOCH,MEAN_MOTION,ECCENTRICITY,INCLINATION,RA_OF_ASC_NODE,ARG_OF_PERICENTER,MEAN_ANOMALY,BSTAR,MEAN_MOTION_DOT,MEAN_MOTION_DDOT,TLE_LINE0,TLE_LINE1,TLE_LINE2,SEMIMAJOR_AXIS,PERIOD,APOGEE,PERIGEE,DECAYED
54089.0,STARLINK-5143,PAYLOAD,2024-06-14 14:50:21,15.08819926,0.0001301,53.2144,295.9566,76.2913,283.8224,0.00076747,0.00011941,0.0,0 STARLINK-5143,1 54089U 22136AQ  24166.61830219  .00011941  00000-0  76747-3 0  9999,2 54089  53.2144 295.9566 0001301  76.2913 283.8224 15.08819926 91415,6917.942,95.439,540.707,538.907,0.0
54089.0,STARLINK-5143,PAYLOAD,2024-06-15 14:41:06,15.08854023,0.000128,53.2167,291.4982,74.0002,286.1131,0.00022696,3.327e-05,0.0,0 STARLINK-5143,1 54089U 22136AQ  24167.61188504  .00003327  00000-0  22696-3 0  9996,2 54089  53.2167 291.4982 0001280  74.0002 286.1131 15.08854023 91560,6917.838,95.437,540.588,538.817,0.0
54089.0,STARLINK-5143,PAYLOAD,2024-06-16 14:31:53,15.08843748,0.0001455,53.2192,287.0343,92.8574,267.2585,0.00012341,1.677e-05,0.0,0 STARLINK-5143,1 54089U 22136AQ  24168.60548610  .00001677  00000-0  12341-3 0  9996,2 54089  53.2192 287.0343 0001455  92.8574 267.2585 15.08843748 91718,6917.869,95.437,540.74,538.727,0.0
54089.0,STARLINK-5143,PAYLOAD,2024-06-16 17:42:40,15.08848549,0.0001506,53.2206,286.4411,95.0249,265.0915,7.1795e-05,8.55e-06,0.0,0 STARLINK-5143,1 54089U 22136AQ  24168.73796315  .00000855  00000-0  71795-4 0  9993,2 54089  53.2206 286.4411 0001506  95.0249 265.0915 15.08848549 91733,6917.854,95.437,540.761,538.677,0.0
54089.0,STARLINK-5143,PAYLOAD,2024-06-17 17:33:27,15.08838809,0.0001283,53.2183,281.9811,91.0595,269.0544,-3.176e-05,-7.93e-06,0.0,0 STARLINK-5143,1 54089U 22136AQ  24169.73157091 -.00000793  00000-0 -31760-4 0  9997,2 54089  53.2183 281.9811 0001283  91.0595 269.0544 15.08838809 91889,6917.884,95.438,540.637,538.861,0.0
54089.0,STARLINK-5143,PAYLOAD,2024-06-18 12:38:05,15.0883836,0.0001358,53.2185,278.4143,94.9738,265.141,8.2259e-05,1.021e-05,0.0,0 STARLINK-5143,1 54089U 22136AQ  24170.52644996  .00001021  00000-0  82259-4 0  9993,2 54089  53.2185 278.4143 0001358  94.9738 265.1410 15.08838360 92471,6917.885,95.438,540.69,538.811,0.0
54089.0,STARLINK-5143,PAYLOAD,2024-06-18 14:13:28,15.08839547,0.0001247,53.2164,278.1184,88.2232,271.8903,0.00013663,1.887e-05,0.0,0 STARLINK-5143,1 54089U 22136AQ  24170.59268823  .00001887  00000-0  13663-3 0  9993,2 54089  53.2164 278.1184 0001247  88.2232 271.8903 15.08839547 92011,6917.882,95.438,540.609,538.884,0.0
54089.0,STARLINK-5143,PAYLOAD,2024-06-19 14:04:16,15.08829675,0.0001211,53.2159,273.6585,95.4094,264.7037,4.8107e-05,4.78e-06,0.0,0 STARLINK-5143,1 54089U 22136AQ  24171.58630100  .00000478  00000-0  48107-4 0  9991,2 54089  53.2159 273.6585 0001211  95.4094 264.7037 15.08829675 92635,6917.912,95.438,540.615,538.939,0.0
54089.0,STARLINK-5143,PAYLOAD,2024-06-20 13:55:02,15.08846207,0.000122,53.2168,269.1962,82.0352,278.0779,0.00010052,1.313e-05,0.0,0 STARLINK-5143,1 54089U 22136AQ  24172.57989225  .00001313  00000-0  10052-3 0  9992,2 54089  53.2168 269.1962 0001220  82.0352 278.0779 15.08846207 92319,6917.861,95.437,540.57,538.882,0.0
54089.0,STARLINK-5143,PAYLOAD,2024-06-20 17:05:48,15.08849808,0.0001254,53.2172,268.6021,91.131,268.9826,0.00016735,2.377e-05,0.0,0 STARLINK-5143,1 54089U 22136AQ  24172.71236849  .00002377  00000-0  16735-3 0  9990,2 54089  53.2172 268.6021 0001254  91.1310 268.9826 15.08849808 92801,6917.85,95.437,540.583,538.848,0.0
54089.0,STARLINK-5143,PAYLOAD,2024-06-21 12:10:27,15.08838198,0.0001512,53.218,265.0328,86.9407,273.1758,8.174e-05,1.013e-05,0.0,0 STARLINK-5143,1 54089U 22136AQ  24173.50725938  .00001013  00000-0  81740-4 0  9995,2 54089  53.2180 265.0328 0001512  86.9407 273.1758 15.08838198 92922,6917.886,95.438,540.797,538.705,0.0
54089.0,STARLINK-5143,PAYLOAD,2024-06-21 13:45:50,15.08839181,0.0001357,53.2172,264.7356,80.2796,279.8349,7.918e-05,9.72e-06,0.0,0 STARLINK-5143,1 54089U 22136AQ  24173.57349866  .00000972  00000-0  79180-4 0  9992,2 54089  53.2172 264.7356 0001357  80.2796 279.8349 15.08839181 92466,6917.883,95.438,540.687,538.809,0.0
54089.0,STARLINK-5143,PAYLOAD,2024-06-22 12:01:14,15.08841053,0.0001314,53.2172,260.5735,83.5159,276.5983,-3.2292e-05,-8.02e-06,0.0,0 STARLINK-5143,1 54089U 22136AQ  24174.50086197 -.00000802  00000-0 -32292-4 0  9998,2 54089  53.2172 260.5735 0001314  83.5159 276.5983 15.08841053 92608,6917.877,95.437,540.651,538.833,0.0
54089.0,STARLINK-5143,PAYLOAD,2024-06-22 15:12:00,15.08845251,0.0001391,53.2177,259.9791,81.7392,278.3758,7.1799e-06,-1.74e-06,0.0,0 STARLINK-5143,1 54089U 22136AQ  24174.63333840 -.00000174  00000-0  71799-5 0  9999,2 54089  53.2177 259.9791 0001391  81.7392 278.3758 15.08845251 93099,6917.864,95.437,540.692,538.767,0.0
54089.0,STARLINK-5143,PAYLOAD,2024-06-23 11:52:00,15.08846443,0.000153,53.2178,256.1128,74.2501,285.866,0.00011371,1.522e-05,0.0,0 STARLINK-5143,1 54089U 22136AQ  24175.49445468  .00001522  00000-0  11371-3 0  9999,2 54089  53.2178 256.1128 0001530  74.2501 285.8660 15.08846443 92758,6917.861,95.437,540.784,538.667,0.0
54089.0,STARLINK-5143,PAYLOAD,2024-06-24 11:42:47,15.08843751,0.000145,53.2181,251.6511,96.981,263.1347,9.0312e-05,1.15e-05,0.0,0 STARLINK-5143,1 54089U 22136AQ  24176.48805355  .00001150  00000-0  90312-4 0  9994,2 54089  53.2181 251.6511 0001450  96.9810 263.1347 15.08843751 93372,6917.869,95.437,540.737,538.731,0.0
54089.0,STARLINK-5143,PAYLOAD,2024-06-25 11:33:35,15.08839194,0.0001474,53.2177,247.1901,96.3934,263.7226,-5.4738e-05,-1.159e-05,0.0,0 STARLINK-5143,1 54089U 22136AQ  24177.48165980 -.00001159  00000-0 -54738-4 0  9991,2 54089  53.2177 247.1901 0001474  96.3934 263.7226 15.08839194 93522,6917.883,95.438,540.768,538.728,0.0
54089.0,STARLINK-5143,PAYLOAD,2024-06-26 12:59:44,15.0884325,0.0001472,53.2169,242.4318,93.4752,266.6409,8.0413e-05,9.92e-06,0.0,0 STARLINK-5143,1 54089U 22136AQ  24178.54149287  .00000992  00000-0  80413-4 0  9992,2 54089  53.2169 242.4318 0001472  93.4752 266.6409 15.08843250 93216,6917.87,95.437,540.754,538.717,0.0
54089.0,STARLINK-5143,PAYLOAD,2024-06-27 11:15:09,15.08836372,0.0001428,53.2164,238.2714,101.0066,259.1087,7.5454e-05,9.13e-06,0.0,0 STARLINK-5143,1 54089U 22136AQ  24179.46885976  .00000913  00000-0  75454-4 0  9998,2 54089  53.2164 238.2714 0001428 101.0066 259.1087 15.08836372 93822,6917.891,95.438,540.744,538.769,0.0
54089.0,STARLINK-5143,PAYLOAD,2024-06-28 11:05:56,15.08840101,0.0001405,53.2153,233.8107,106.5504,253.5643,7.1011e-05,8.42e-06,0.0,0 STARLINK-5143,1 54089U 22136AQ  24180.46245941  .00000842  00000-0  71011-4 0  9998,2 54089  53.2153 233.8107 0001405 106.5504 253.5643 15.08840101 93505,6917.88,95.438,540.717,538.773,0.0
54089.0,STARLINK-5143,PAYLOAD,2024-06-29 12:32:05,15.08857776,0.0001301,53.2149,229.0488,88.1563,271.9578,0.00015807,2.23e-05,0.0,0 STARLINK-5143,1 54089U 22136AQ  24181.52228632  .00002230  00000-0  15807-3 0  9997,2 54089  53.2149 229.0488 0001301  88.1563 271.9578 15.08857776 94131,6917.826,95.436,540.591,538.791,0.0
54089.0,STARLINK-5143,PAYLOAD,2024-06-29 20:29:02,15.0884162,0.000154,53.2149,227.5626,82.9588,277.1579,9.6149e-07,-2.73e-06,0.0,0 STARLINK-5143,1 54089U 22136AQ  24181.85349984 -.00000273  00000-0  96149-6 0  9994,2 54089  53.2149 227.5626 0001540  82.9588 277.1579 15.08841620 93715,6917.875,95.437,540.806,538.675,0.0
54089.0,STARLINK-5143,PAYLOAD,2024-06-30 02:50:35,15.08839378,0.0001585,53.2143,226.3762,82.3083,277.8089,3.2437e-05,2.28e-06,0.0,0 STARLINK-5143,1 54089U 22136AQ  24182.11846364  .00000228  00000-0  32437-4 0  9995,2 54089  53.2143 226.3762 0001585  82.3083 277.8089 15.08839378 94227,6917.882,95.438,540.844,538.651,0.0
54089.0,STARLINK-5143,PAYLOAD,2024-06-30 09:12:08,15.08835335,0.00014,53.214,225.1842,91.092,269.0232,-8.0015e-06,-4.15e-06,0.0,0 STARLINK-5143,1 54089U 22136AQ  24182.38342652 -.00000415  00000-0 -80015-5 0  9991,2 54089  53.2140 225.1842 0001400  91.0920 269.0232 15.08835335 93796,6917.895,95.438,540.728,538.791,0.0
54089.0,STARLINK-5143,PAYLOAD,2024-06-30 20:19:49,15.08837699,0.0001384,53.2157,223.1035,94.5365,265.5785,2.8652e-05,1.68e-06,0.0,0 STARLINK-5143,1 54089U 22136AQ  24182.84710478  .00000168  00000-0  28652-4 0  9998,2 54089  53.2157 223.1035 0001384  94.5365 265.5785 15.08837699 93865,6917.887,95.438,540.71,538.795,0.0
54089.0,STARLINK-5143,PAYLOAD,2024-07-01 09:02:54,15.08851848,0.0001413,53.2157,220.7247,86.2426,273.8728,-2.8259e-05,-7.38e-06,0.0,0 STARLINK-5143,1 54089U 22136AQ  24183.37701847 -.00000738  00000-0 -28259-4 0  9995,2 54089  53.2157 220.7247 0001413  86.2426 273.8728 15.08851848 94415,6917.844,95.437,540.687,538.732,0.0
54089.0,STARLINK-5143,PAYLOAD,2024-07-02 05:42:55,15.08832928,0.0001427,53.2156,216.859,81.4928,278.6225,0.000113,1.511e-05,0.0,0 STARLINK-5143,1 54089U 22136AQ  24184.23814697  .00001511  00000-0  11300-3 0  9995,2 54089  53.2156 216.8590 0001427  81.4928 278.6225 15.08832928 94547,6917.902,95.438,540.754,538.78,0.0
54089.0,STARLINK-5143,PAYLOAD,2024-07-02 08:53:42,15.08834967,0.0001416,53.2158,216.2645,80.9659,279.1493,8.7854e-05,1.11e-05,0.0,0 STARLINK-5143,1 54089U 22136AQ  24184.37062716  .00001110  00000-0  87854-4 0  9990,2 54089  53.2158 216.2645 0001416  80.9659 279.1493 15.08834967 94095,6917.896,95.438,540.74,538.781,0.0
54089.0,STARLINK-5143,PAYLOAD,2024-07-03 08:44:29,15.0883771,0.000145,53.2164,211.8037,83.7226,276.3932,1.3944e-05,-6.6e-07,0.0,0 STARLINK-5143,1 54089U 22136AQ  24185.36422857 -.00000066  00000-0  13944-4 0  9995,2 54089  53.2164 211.8037 0001450  83.7226 276.3932 15.08837710 94712,6917.887,95.438,540.755,538.749,0.0
54089.0,STARLINK-5143,PAYLOAD,2024-07-03 18:16:48,15.08838678,0.0001408,53.2159,210.019,81.2942,278.8209,2.9995e-05,1.89e-06,0.0,0 STARLINK-5143,1 54089U 22136AQ  24185.76166760  .00000189  00000-0  29995-4 0  9995,2 54089  53.2159 210.0190 0001408  81.2942 278.8209 15.08838678 94301,6917.884,95.438,540.723,538.775,0.0
